2025-313BE              
1 67482U 25313BE  26044.20090058  .00065229  00000+0  25167-2 0  9997
2 67482  97.4064 121.0310 0008439  74.8136 285.4035 15.26013904  4237
ION SCV-021             
1 67483U 25276DT  26034.18647169 -.00137880  00000+0 -12184-1 0  9992
2 67483  97.5347 109.4970 0011364 207.9438 152.1175 14.97059561  2554
STARLINK-36551          
1 67493U 26012A   26044.50003471 -.01851509  00000+0 -48851-1 0  9993
2 67493  42.9998  91.5798 0001464 287.3960 154.3490 15.40987645  5180
STARLINK-36396          
1 67494U 26012B   26043.50669403  .00091001  00000+0  15335-2 0  9998
2 67494  43.0004  98.1000 0001112 358.6780   1.4077 15.50679657  3893
STARLINK-36550          
1 67495U 26012C   26044.17864642  .00069826  00000+0  11860-2 0  9994
2 67495  43.0016  93.6684 0002737 258.5376 101.5177 15.50564110  4002
STARLINK-36534          
1 67496U 26012D   26044.50003471 -.01854200  00000+0 -42179-1 0  9994
2 67496  42.9990  91.5330 0001543 292.7866 168.1951 15.45346070  5125
STARLINK-36555          
1 67497U 26012E   26044.50003471 -.01853596  00000+0 -42698-1 0  9998
2 67497  43.0006  91.5540 0001546 291.8944 160.4488 15.44981737  5189
STARLINK-36081          
1 67498U 26012F   26044.00002315  .00100490  00000+0  17017-2 0  9993
2 67498  43.0008  94.7063 0001612 258.7969 184.6897 15.50498218  5041
STARLINK-36558          
1 67499U 26012G   26044.49998124  .00082458  00000+0  13956-2 0  9990
2 67499  43.0008  91.7753 0001794 274.1479  85.9176 15.50599812  4059
STARLINK-36557          
1 67500U 26012H   26044.50003471 -.01904101  00000+0 -46434-1 0  9994
2 67500  42.9999  91.3031 0000892 295.7973 257.1235 15.43413662  5184
STARLINK-36433          
1 67501U 26012J   26044.50003471 -.01906675  00000+0 -45928-1 0  9990
2 67501  42.9999  91.2633 0001034 291.2424 277.8884 15.43776808  5186
STARLINK-36554          
1 67502U 26012K   26044.50003471 -.00544513  00000+0 -98791-2 0  9996
2 67502  43.0000  91.5203 0001177 280.9625 183.5820 15.50745584  5126
