CCSDS_OMM_VERS = 2.0
CREATION_DATE  = 
ORIGINATOR     = 

OBJECT_NAME    = 2025-313BE
OBJECT_ID      = 2025-313BE
CENTER_NAME    = EARTH
REF_FRAME      = TEME
TIME_SYSTEM    = UTC
MEAN_ELEMENT_THEORY = SGP/SGP4

EPOCH          = 2026-02-13T04:49:17.810112
MEAN_MOTION    = 15.26013904
ECCENTRICITY   = .0008439
INCLINATION    = 97.4064
RA_OF_ASC_NODE = 121.0310
ARG_OF_PERICENTER = 74.8136
MEAN_ANOMALY   = 285.4035

EPHEMERIS_TYPE = 0
CLASSIFICATION_TYPE = U
NORAD_CAT_ID   = 67482
ELEMENT_SET_NO = 999
REV_AT_EPOCH   = 423
BSTAR          = .25167E-2
MEAN_MOTION_DOT = .65229E-3
MEAN_MOTION_DDOT = 0

CCSDS_OMM_VERS = 2.0
CREATION_DATE  = 
ORIGINATOR     = 

OBJECT_NAME    = ION SCV-021
OBJECT_ID      = 2025-276DT
CENTER_NAME    = EARTH
REF_FRAME      = TEME
TIME_SYSTEM    = UTC
MEAN_ELEMENT_THEORY = SGP/SGP4

EPOCH          = 2026-02-03T04:28:31.154016
MEAN_MOTION    = 14.97059561
ECCENTRICITY   = .00113647
INCLINATION    = 97.5347
RA_OF_ASC_NODE = 109.4970
ARG_OF_PERICENTER = 207.9438
MEAN_ANOMALY   = 152.1175

EPHEMERIS_TYPE = 0
CLASSIFICATION_TYPE = U
NORAD_CAT_ID   = 67483
ELEMENT_SET_NO = 999
REV_AT_EPOCH   = 255
BSTAR          = -.1218394E-1
MEAN_MOTION_DOT = -.13788E-2
MEAN_MOTION_DDOT = 0

CCSDS_OMM_VERS = 2.0
CREATION_DATE  = 
ORIGINATOR     = 

OBJECT_NAME    = STARLINK-36551
OBJECT_ID      = 2026-012A
CENTER_NAME    = EARTH
REF_FRAME      = TEME
TIME_SYSTEM    = UTC
MEAN_ELEMENT_THEORY = SGP/SGP4

EPOCH          = 2026-02-13T12:00:02.998944
MEAN_MOTION    = 15.40987645
ECCENTRICITY   = .0001464
INCLINATION    = 42.9998
RA_OF_ASC_NODE = 91.5798
ARG_OF_PERICENTER = 287.3960
MEAN_ANOMALY   = 154.3490

EPHEMERIS_TYPE = 0
CLASSIFICATION_TYPE = U
NORAD_CAT_ID   = 67493
ELEMENT_SET_NO = 999
REV_AT_EPOCH   = 518
BSTAR          = -.48851E-1
MEAN_MOTION_DOT = -.1851509E-1
MEAN_MOTION_DDOT = 0

CCSDS_OMM_VERS = 2.0
CREATION_DATE  = 
ORIGINATOR     = 

OBJECT_NAME    = STARLINK-36396
OBJECT_ID      = 2026-012B
CENTER_NAME    = EARTH
REF_FRAME      = TEME
TIME_SYSTEM    = UTC
MEAN_ELEMENT_THEORY = SGP/SGP4

EPOCH          = 2026-02-12T12:09:38.364192
MEAN_MOTION    = 15.50679657
ECCENTRICITY   = .00011125
INCLINATION    = 43.0004
RA_OF_ASC_NODE = 98.1000
ARG_OF_PERICENTER = 358.6780
MEAN_ANOMALY   = 1.4077

EPHEMERIS_TYPE = 0
CLASSIFICATION_TYPE = U
NORAD_CAT_ID   = 67494
ELEMENT_SET_NO = 999
REV_AT_EPOCH   = 389
BSTAR          = .15335285E-2
MEAN_MOTION_DOT = .91001E-3
MEAN_MOTION_DDOT = 0

CCSDS_OMM_VERS = 2.0
CREATION_DATE  = 
ORIGINATOR     = 

OBJECT_NAME    = STARLINK-36550
OBJECT_ID      = 2026-012C
CENTER_NAME    = EARTH
REF_FRAME      = TEME
TIME_SYSTEM    = UTC
MEAN_ELEMENT_THEORY = SGP/SGP4

EPOCH          = 2026-02-13T04:17:15.050688
MEAN_MOTION    = 15.50564110
ECCENTRICITY   = .00027375
INCLINATION    = 43.0016
RA_OF_ASC_NODE = 93.6684
ARG_OF_PERICENTER = 258.5376
MEAN_ANOMALY   = 101.5177

EPHEMERIS_TYPE = 0
CLASSIFICATION_TYPE = U
NORAD_CAT_ID   = 67495
ELEMENT_SET_NO = 999
REV_AT_EPOCH   = 400
BSTAR          = .11859973E-2
MEAN_MOTION_DOT = .69826E-3
MEAN_MOTION_DDOT = 0

CCSDS_OMM_VERS = 2.0
CREATION_DATE  = 
ORIGINATOR     = 

OBJECT_NAME    = STARLINK-36534
OBJECT_ID      = 2026-012D
CENTER_NAME    = EARTH
REF_FRAME      = TEME
TIME_SYSTEM    = UTC
MEAN_ELEMENT_THEORY = SGP/SGP4

EPOCH          = 2026-02-13T12:00:02.998944
MEAN_MOTION    = 15.45346070
ECCENTRICITY   = .0001543
INCLINATION    = 42.9990
RA_OF_ASC_NODE = 91.5330
ARG_OF_PERICENTER = 292.7866
MEAN_ANOMALY   = 168.1951

EPHEMERIS_TYPE = 0
CLASSIFICATION_TYPE = U
NORAD_CAT_ID   = 67496
ELEMENT_SET_NO = 999
REV_AT_EPOCH   = 512
BSTAR          = -.42179E-1
MEAN_MOTION_DOT = -.18542E-1
MEAN_MOTION_DDOT = 0

CCSDS_OMM_VERS = 2.0
CREATION_DATE  = 
ORIGINATOR     = 

OBJECT_NAME    = STARLINK-36555
OBJECT_ID      = 2026-012E
CENTER_NAME    = EARTH
REF_FRAME      = TEME
TIME_SYSTEM    = UTC
MEAN_ELEMENT_THEORY = SGP/SGP4

EPOCH          = 2026-02-13T12:00:02.998944
MEAN_MOTION    = 15.44981737
ECCENTRICITY   = .0001546
INCLINATION    = 43.0006
RA_OF_ASC_NODE = 91.5540
ARG_OF_PERICENTER = 291.8944
MEAN_ANOMALY   = 160.4488

EPHEMERIS_TYPE = 0
CLASSIFICATION_TYPE = U
NORAD_CAT_ID   = 67497
ELEMENT_SET_NO = 999
REV_AT_EPOCH   = 518
BSTAR          = -.42698E-1
MEAN_MOTION_DOT = -.1853596E-1
MEAN_MOTION_DDOT = 0

CCSDS_OMM_VERS = 2.0
CREATION_DATE  = 
ORIGINATOR     = 

OBJECT_NAME    = STARLINK-36081
OBJECT_ID      = 2026-012F
CENTER_NAME    = EARTH
REF_FRAME      = TEME
TIME_SYSTEM    = UTC
MEAN_ELEMENT_THEORY = SGP/SGP4

EPOCH          = 2026-02-13T00:00:02.000160
MEAN_MOTION    = 15.50498218
ECCENTRICITY   = .00016126
INCLINATION    = 43.0008
RA_OF_ASC_NODE = 94.7063
ARG_OF_PERICENTER = 258.7969
MEAN_ANOMALY   = 184.6897

EPHEMERIS_TYPE = 0
CLASSIFICATION_TYPE = U
NORAD_CAT_ID   = 67498
ELEMENT_SET_NO = 999
REV_AT_EPOCH   = 504
BSTAR          = .17016943E-2
MEAN_MOTION_DOT = .10049E-2
MEAN_MOTION_DDOT = 0

CCSDS_OMM_VERS = 2.0
CREATION_DATE  = 
ORIGINATOR     = 

OBJECT_NAME    = STARLINK-36558
OBJECT_ID      = 2026-012G
CENTER_NAME    = EARTH
REF_FRAME      = TEME
TIME_SYSTEM    = UTC
MEAN_ELEMENT_THEORY = SGP/SGP4

EPOCH          = 2026-02-13T11:59:58.379136
MEAN_MOTION    = 15.50599812
ECCENTRICITY   = .0001794
INCLINATION    = 43.0008
RA_OF_ASC_NODE = 91.7753
ARG_OF_PERICENTER = 274.1479
MEAN_ANOMALY   = 85.9176

EPHEMERIS_TYPE = 0
CLASSIFICATION_TYPE = U
NORAD_CAT_ID   = 67499
ELEMENT_SET_NO = 999
REV_AT_EPOCH   = 405
BSTAR          = .13956E-2
MEAN_MOTION_DOT = .82458E-3
MEAN_MOTION_DDOT = 0

CCSDS_OMM_VERS = 2.0
CREATION_DATE  = 
ORIGINATOR     = 

OBJECT_NAME    = STARLINK-36557
OBJECT_ID      = 2026-012H
CENTER_NAME    = EARTH
REF_FRAME      = TEME
TIME_SYSTEM    = UTC
MEAN_ELEMENT_THEORY = SGP/SGP4

EPOCH          = 2026-02-13T12:00:02.998944
MEAN_MOTION    = 15.43413662
ECCENTRICITY   = .0000892
INCLINATION    = 42.9999
RA_OF_ASC_NODE = 91.3031
ARG_OF_PERICENTER = 295.7973
MEAN_ANOMALY   = 257.1235

EPHEMERIS_TYPE = 0
CLASSIFICATION_TYPE = U
NORAD_CAT_ID   = 67500
ELEMENT_SET_NO = 999
REV_AT_EPOCH   = 518
BSTAR          = -.46434E-1
MEAN_MOTION_DOT = -.1904101E-1
MEAN_MOTION_DDOT = 0

CCSDS_OMM_VERS = 2.0
CREATION_DATE  = 
ORIGINATOR     = 

OBJECT_NAME    = STARLINK-36433
OBJECT_ID      = 2026-012J
CENTER_NAME    = EARTH
REF_FRAME      = TEME
TIME_SYSTEM    = UTC
MEAN_ELEMENT_THEORY = SGP/SGP4

EPOCH          = 2026-02-13T12:00:02.998944
MEAN_MOTION    = 15.43776808
ECCENTRICITY   = .0001034
INCLINATION    = 42.9999
RA_OF_ASC_NODE = 91.2633
ARG_OF_PERICENTER = 291.2424
MEAN_ANOMALY   = 277.8884

EPHEMERIS_TYPE = 0
CLASSIFICATION_TYPE = U
NORAD_CAT_ID   = 67501
ELEMENT_SET_NO = 999
REV_AT_EPOCH   = 518
BSTAR          = -.45928E-1
MEAN_MOTION_DOT = -.1906675E-1
MEAN_MOTION_DDOT = 0

CCSDS_OMM_VERS = 2.0
CREATION_DATE  = 
ORIGINATOR     = 

OBJECT_NAME    = STARLINK-36554
OBJECT_ID      = 2026-012K
CENTER_NAME    = EARTH
REF_FRAME      = TEME
TIME_SYSTEM    = UTC
MEAN_ELEMENT_THEORY = SGP/SGP4

EPOCH          = 2026-02-13T12:00:02.998944
MEAN_MOTION    = 15.50745584
ECCENTRICITY   = .0001177
INCLINATION    = 43.0000
RA_OF_ASC_NODE = 91.5203
ARG_OF_PERICENTER = 280.9625
MEAN_ANOMALY   = 183.5820

EPHEMERIS_TYPE = 0
CLASSIFICATION_TYPE = U
NORAD_CAT_ID   = 67502
ELEMENT_SET_NO = 999
REV_AT_EPOCH   = 512
BSTAR          = -.98791E-2
MEAN_MOTION_DOT = -.544513E-2
MEAN_MOTION_DDOT = 0

